     2              NAVIGATION DATA                         RINEX VERSION / TYPE
CCRINEXN V1.6.0 UX  CDDIS               15-OCT-19 10:31     PGM / RUN BY / DATE 
IGS BROADCAST EPHEMERIS FILE                                COMMENT             
    0.1118D-07  0.0000D+00 -0.5960D-07  0.0000D+00          ION ALPHA           
    0.9011D+05  0.0000D+00 -0.1966D+06  0.0000D+00          ION BETA            
    0.186264514923D-08 0.532907051820D-14   233472     2075 DELTA-UTC: A0,A1,T,W
    18                                                      LEAP SECONDS        
                                                            END OF HEADER       
25 19 10 14 10  0  0.0-0.153188593686D-04-0.909494701773D-12 0.000000000000D+00
    0.480000000000D+02-0.387812500000D+02 0.487698886045D-08-0.762448545328D+00
   -0.183656811714D-05 0.846660567913D-02 0.259652733803D-05 0.515364238358D+04
    0.122400000000D+06 0.502914190292D-07-0.129795924208D+01 0.186264514923D-06
    0.968175000466D+00 0.335281250000D+03 0.892357774443D+00-0.856178520415D-08
   -0.118219210019D-09 0.100000000000D+01 0.207500000000D+04 0.000000000000D+00
    0.200000000000D+01 0.000000000000D+00 0.558793544769D-08 0.480000000000D+02
    0.115218000000D+06 0.400000000000D+01 0.000000000000D+00 0.000000000000D+00
26 19 10 14 10  0  0.0 0.612074509263D-04 0.864019966684D-11 0.000000000000D+00
    0.500000000000D+02-0.354062500000D+02 0.516414367874D-08-0.127625419572D+01
   -0.202842056751D-05 0.400880957022D-02 0.217370688915D-05 0.515367821884D+04
    0.122400000000D+06 0.353902578354D-07-0.132911891441D+01-0.763684511185D-07
    0.949380044873D+00 0.328562500000D+03 0.119488688086D+00-0.862178770349D-08
   -0.350014579512D-10 0.100000000000D+01 0.207500000000D+04 0.000000000000D+00
    0.200000000000D+01 0.000000000000D+00 0.745058059692D-08 0.500000000000D+02
    0.115218000000D+06 0.400000000000D+01 0.000000000000D+00 0.000000000000D+00
27 19 10 14 10  0  0.0-0.871093943715D-04-0.121644916362D-10 0.000000000000D+00
    0.670000000000D+02-0.652500000000D+02 0.390016245742D-08 0.311103761994D+01
   -0.338256359100D-05 0.724742829334D-02 0.114124268293D-04 0.515365905571D+04
    0.122400000000D+06-0.987201929092D-07-0.255313030424D+00-0.372529029846D-07
    0.978891671224D+00 0.169750000000D+03 0.508105801172D+00-0.755245744731D-08
   -0.148577617426D-09 0.100000000000D+01 0.207500000000D+04 0.000000000000D+00
    0.200000000000D+01 0.000000000000D+00 0.139698386192D-08 0.670000000000D+02
    0.115218000000D+06 0.400000000000D+01 0.000000000000D+00 0.000000000000D+00
28 19 10 14 10  0  0.0 0.759070739150D-03-0.136424205266D-11 0.000000000000D+00
    0.960000000000D+02-0.608437500000D+02 0.433839499728D-08-0.238755825714D+01
   -0.287592411041D-05 0.191236677347D-01 0.276230275631D-05 0.515370400238D+04
    0.122400000000D+06 0.145286321640D-06-0.120906363522D+01 0.189989805222D-06
    0.980110123989D+00 0.329000000000D+03-0.145206663572D+01-0.792604443728D-08
   -0.105718689322D-09 0.100000000000D+01 0.207500000000D+04 0.000000000000D+00
    0.400000000000D+01 0.000000000000D+00-0.111758708954D-07 0.960000000000D+02
    0.115218000000D+06 0.400000000000D+01 0.000000000000D+00 0.000000000000D+00
30 19 10 14 10  0  0.0-0.613247975707D-04-0.818545231596D-11 0.000000000000D+00
    0.100000000000D+02 0.106250000000D+03 0.497842165696D-08 0.215557015935D+00
    0.556185841560D-05 0.418875250034D-02 0.667013227940D-05 0.515374694252D+04
    0.122400000000D+06 0.126659870148D-06-0.230891537998D+01 0.614672899246D-07
    0.940027047831D+00 0.239750000000D+03-0.290015270353D+01-0.849071081504D-08
    0.515735768179D-09 0.100000000000D+01 0.207500000000D+04 0.000000000000D+00
    0.200000000000D+01 0.000000000000D+00 0.372529029846D-08 0.100000000000D+02
    0.115218000000D+06 0.400000000000D+01 0.000000000000D+00 0.000000000000D+00
31 19 10 14 10  0  0.0 0.376300886273D-05-0.261479726760D-11 0.000000000000D+00
    0.600000000000D+02 0.897812500000D+02 0.456376152756D-08-0.343916987009D-01
    0.482611358166D-05 0.942385382950D-02 0.694580376148D-05 0.515371376991D+04
    0.122400000000D+06 0.113621354103D-06-0.232036098186D+01-0.242143869400D-07
    0.959140764497D+00 0.241593750000D+03 0.402373715909D-01-0.832463246864D-08
    0.464662212189D-09 0.100000000000D+01 0.207500000000D+04 0.000000000000D+00
    0.200000000000D+01 0.000000000000D+00-0.135041773319D-07 0.600000000000D+02
    0.115218000000D+06 0.400000000000D+01 0.000000000000D+00 0.000000000000D+00
32 19 10 14 10  0  0.0 0.909059308469D-04 0.129602995003D-10 0.000000000000D+00
    0.320000000000D+02-0.253437500000D+02 0.420767526656D-08-0.242379988012D+01
   -0.117532908917D-05 0.324439781252D-02 0.116173177957D-04 0.515364237595D+04
    0.122400000000D+06-0.763684511185D-07 0.288067498797D+01-0.745058059692D-08
    0.957225768158D+00 0.153312500000D+03-0.252241133745D+01-0.776603777236D-08
   -0.297512392585D-09 0.100000000000D+01 0.207500000000D+04 0.000000000000D+00
    0.200000000000D+01 0.000000000000D+00 0.465661287308D-09 0.320000000000D+02
    0.115218000000D+06 0.400000000000D+01 0.000000000000D+00 0.000000000000D+00
 6 19 10 14 11 59 44.0-0.900710001588D-04-0.128466126625D-10 0.000000000000D+00
    0.180000000000D+02 0.589062500000D+02 0.431553690229D-08 0.233423230233D+01
    0.316463410854D-05 0.142291293014D-02 0.868178904056D-05 0.515367346191D+04
    0.129584000000D+06 0.316649675369D-07 0.791130457211D+00-0.558793544769D-08
    0.976891326782D+00 0.218500000000D+03-0.117853210042D+01-0.789961476495D-08
    0.486448833975D-09 0.100000000000D+01 0.207500000000D+04 0.000000000000D+00
    0.200000000000D+01 0.000000000000D+00 0.419095158577D-08 0.180000000000D+02
    0.125418000000D+06 0.400000000000D+01 0.000000000000D+00 0.000000000000D+00
15 19 10 14 11 59 44.0-0.279975123703D-03 0.272848410532D-11 0.000000000000D+00
    0.500000000000D+01-0.370937500000D+02 0.493699126025D-08-0.302125963209D+01
   -0.197999179363D-05 0.118566618767D-01 0.116601586342D-04 0.515358941460D+04
    0.129584000000D+06 0.614672899246D-07 0.278970688116D+01-0.162050127983D-06
    0.928469237213D+00 0.135343750000D+03 0.822606181284D+00-0.806390776376D-08
   -0.476805595007D-09 0.100000000000D+01 0.207500000000D+04 0.000000000000D+00
    0.200000000000D+01 0.000000000000D+00-0.107102096081D-07 0.500000000000D+01
    0.124950000000D+06 0.000000000000D+00 0.000000000000D+00 0.000000000000D+00
16 19 10 14 11 59 44.0-0.832010991871D-04-0.363797880709D-11 0.000000000000D+00
    0.130000000000D+02-0.496562500000D+02 0.436732477375D-08-0.117061824758D+01
   -0.251457095146D-05 0.108400613535D-01 0.275671482086D-05 0.515364623260D+04
    0.129584000000D+06 0.273808836937D-06-0.121300177412D+01-0.465661287308D-07
    0.981131153034D+00 0.330218750000D+03 0.579933617409D+00-0.821534220198D-08
   -0.126790995640D-09 0.100000000000D+01 0.207500000000D+04 0.000000000000D+00
    0.200000000000D+01 0.000000000000D+00-0.107102096081D-07 0.130000000000D+02
    0.122418000000D+06 0.400000000000D+01 0.000000000000D+00 0.000000000000D+00
28 19 10 14 11 59 44.0 0.759066082537D-03-0.136424205266D-11 0.000000000000D+00
    0.500000000000D+01-0.529062500000D+02 0.448018661776D-08-0.133979869622D+01
   -0.228174030781D-05 0.191243718145D-01 0.373832881451D-05 0.515370124626D+04
    0.129584000000D+06-0.283122062683D-06-0.120912151558D+01 0.361353158951D-06
    0.980107209857D+00 0.320781250000D+03-0.145199744408D+01-0.835856245339D-08
   -0.150006248362D-09 0.100000000000D+01 0.207500000000D+04 0.000000000000D+00
    0.200000000000D+01 0.000000000000D+00-0.111758708954D-07 0.500000000000D+01
    0.122418000000D+06 0.400000000000D+01 0.000000000000D+00 0.000000000000D+00
 1 19 10 14 12  0  0.0-0.162224285305D-03-0.131876731757D-10 0.000000000000D+00
    0.380000000000D+02 0.547812500000D+02 0.429053586090D-08 0.196837113890D+01
    0.279769301414D-05 0.912427285221D-02 0.873580574989D-05 0.515364496803D+04
    0.129600000000D+06-0.281259417534D-06 0.799398170920D+00-0.894069671631D-07
    0.977265675815D+00 0.220125000000D+03 0.766434079844D+00-0.787818530090D-08
    0.537165232231D-09 0.100000000000D+01 0.207500000000D+04 0.000000000000D+00
    0.200000000000D+01 0.000000000000D+00 0.558793544769D-08 0.380000000000D+02
    0.122418000000D+06 0.400000000000D+01 0.000000000000D+00 0.000000000000D+00
 2 19 10 14 12  0  0.0-0.325664412230D-03-0.795807864051D-11 0.000000000000D+00
    0.380000000000D+02 0.581875000000D+02 0.458840541122D-08 0.225407768512D+01
    0.282563269138D-05 0.192099267151D-01 0.913999974728D-05 0.515355404472D+04
    0.129600000000D+06 0.232830643654D-06 0.727783912927D+00-0.189989805222D-06
    0.956403172248D+00 0.194250000000D+03-0.170850572100D+01-0.777032366517D-08
    0.478591363823D-09 0.100000000000D+01 0.207500000000D+04 0.000000000000D+00
    0.200000000000D+01 0.000000000000D+00-0.204890966415D-07 0.380000000000D+02
    0.122418000000D+06 0.400000000000D+01 0.000000000000D+00 0.000000000000D+00
 3 19 10 14 12  0  0.0-0.222926028073D-04-0.477484718431D-11 0.000000000000D+00
    0.410000000000D+02-0.249375000000D+02 0.495234914236D-08 0.818595191993D+00
   -0.128336250782D-05 0.257042504381D-02 0.406056642532D-05 0.515368729401D+04
    0.129600000000D+06 0.353902578354D-07 0.184153755315D+01 0.353902578354D-07
    0.963507462319D+00 0.301125000000D+03 0.773598465127D+00-0.841999358367D-08
   -0.305369862738D-09 0.100000000000D+01 0.207500000000D+04 0.000000000000D+00
    0.200000000000D+01 0.000000000000D+00 0.186264514923D-08 0.410000000000D+02
    0.122418000000D+06 0.400000000000D+01 0.000000000000D+00 0.000000000000D+00
